{"type": "FeatureCollection", "features": [ {"type": "Feature", "properties": {"norad_id": 35018, "name": "COSMOS 2251 DEB", "group": "cosmos-2251-debris", "lat": 73.27072348304803, "lon": -169.8645992286364, "alt_km": 859.2619822396946, "timestamp": "2025-12-08T08:59:01.162281+00:00", "meta": {"OBJECT_NAME": "COSMOS 2251 DEB", "OBJECT_ID": "1993-036AGF", "EPOCH": "2025-12-07T02:44:20.338656", "MEAN_MOTION": 13.67099498, "ECCENTRICITY": 0.0348459, "INCLINATION": 73.9755, "RA_OF_ASC_NODE": 119.2461, "ARG_OF_PERICENTER": 29.6581, "MEAN_ANOMALY": 332.3799, "EPHEMERIS_TYPE": 0, "CLASSIFICATION_TYPE": "U", "NORAD_CAT_ID": 35018, "ELEMENT_SET_NO": 999, "REV_AT_EPOCH": 83109, "BSTAR": 0.0011552801, "MEAN_MOTION_DOT": 1.451e-05, "MEAN_MOTION_DDOT": 0}, "tle": {"line1": "1 35018U 93036AGF 25341.11412429  .00001451  00000+0  11553-2 0  9994", "line2": "2 35018  73.9755 119.2461 0348459  29.6581 332.3799 13.67099498831096"}}, "geometry": {"type": "Point", "coordinates": [-169.8645992286364, 73.27072348304803]}}, {"type": "Feature", "properties": {"norad_id": 35020, "name": "COSMOS 2251 DEB", "group": "cosmos-2251-debris", "lat": 15.29118815200394, "lon": -148.20441385514366, "alt_km": 646.223948385491, "timestamp": "2025-12-08T08:59:01.162291+00:00", "meta": {"OBJECT_NAME": "COSMOS 2251 DEB", "OBJECT_ID": "1993-036AGH", "EPOCH": "2025-12-07T00:05:05.050752", "MEAN_MOTION": 14.62790798, "ECCENTRICITY": 0.00909018, "INCLINATION": 74.0461, "RA_OF_ASC_NODE": 209.9349, "ARG_OF_PERICENTER": 325.3145, "MEAN_ANOMALY": 34.2114, "EPHEMERIS_TYPE": 0, "CLASSIFICATION_TYPE": "U", "NORAD_CAT_ID": 35020, "ELEMENT_SET_NO": 999, "REV_AT_EPOCH": 88154, "BSTAR": 0.00028883353, "MEAN_MOTION_DOT": 1.53e-05, "MEAN_MOTION_DDOT": 0}, "tle": {"line1": "1 35020U 93036AGH 25341.00353068  .00001530  00000+0  28883-3 0  9991", "line2": "2 35020  74.0461 209.9349 0090901 325.3145  34.2114 14.62790798881546"}}, "geometry": {"type": "Point", "coordinates": [-148.20441385514366, 15.29118815200394]}}, {"type": "Feature", "properties": {"norad_id": 35022, "name": "COSMOS 2251 DEB", "group": "cosmos-2251-debris", "lat": 72.47883593694993, "lon": 85.14903911583518, "alt_km": 674.0360253680819, "timestamp": "2025-12-08T08:59:01.162301+00:00", "meta": {"OBJECT_NAME": "COSMOS 2251 DEB", "OBJECT_ID": "1993-036AGK", "EPOCH": "2025-12-02T17:45:34.658208", "MEAN_MOTION": 14.60763876, "ECCENTRICITY": 0.00472905, "INCLINATION": 74.0262, "RA_OF_ASC_NODE": 341.0512, "ARG_OF_PERICENTER": 183.6288, "MEAN_ANOMALY": 176.4543, "EPHEMERIS_TYPE": 0, "CLASSIFICATION_TYPE": "U", "NORAD_CAT_ID": 35022, "ELEMENT_SET_NO": 999, "REV_AT_EPOCH": 58997, "BSTAR": 0.00056913021, "MEAN_MOTION_DOT": 2.791e-05, "MEAN_MOTION_DDOT": 0}, "tle": {"line1": "1 35022U 93036AGK 25336.73998447  .00002791  00000+0  56913-3 0  9998", "line2": "2 35022  74.0262 341.0512 0047290 183.6288 176.4543 14.60763876589975"}}, "geometry": {"type": "Point", "coordinates": [85.14903911583518, 72.47883593694993]}}, {"type": "Feature", "properties": {"norad_id": 35023, "name": "COSMOS 2251 DEB", "group": "cosmos-2251-debris", "lat": 72.8442212875858, "lon": -26.609731092285628, "alt_km": 597.1950697741067, "timestamp": "2025-12-08T08:59:01.162311+00:00", "meta": {"OBJECT_NAME": "COSMOS 2251 DEB", "OBJECT_ID": "1993-036AGL", "EPOCH": "2025-12-07T22:59:06.245088", "MEAN_MOTION": 14.94868746, "ECCENTRICITY": 0.00342365, "INCLINATION": 74.0379, "RA_OF_ASC_NODE": 222.2285, "ARG_OF_PERICENTER": 300.9067, "MEAN_ANOMALY": 74.2193, "EPHEMERIS_TYPE": 0, "CLASSIFICATION_TYPE": "U", "NORAD_CAT_ID": 35023, "ELEMENT_SET_NO": 999, "REV_AT_EPOCH": 88208, "BSTAR": 0.0020304888, "MEAN_MOTION_DOT": 0.00022424, "MEAN_MOTION_DDOT": 0}, "tle": {"line1": "1 35023U 93036AGL 25341.95771117  .00022424  00000+0  20305-2 0  9992", "line2": "2 35023  74.0379 222.2285 0034236 300.9067  74.2193 14.94868746882080"}}, "geometry": {"type": "Point", "coordinates": [-26.609731092285628, 72.8442212875858]}}, {"type": "Feature", "properties": {"norad_id": 35025, "name": "COSMOS 2251 DEB", "group": "cosmos-2251-debris", "lat": 18.06173811101613, "lon": -113.91092063418341, "alt_km": 712.1121694883132, "timestamp": "2025-12-08T08:59:01.162321+00:00", "meta": {"OBJECT_NAME": "COSMOS 2251 DEB", "OBJECT_ID": "1993-036AGN", "EPOCH": "2025-12-07T15:57:01.553184", "MEAN_MOTION": 14.72670595, "ECCENTRICITY": 0.00849167, "INCLINATION": 73.9389, "RA_OF_ASC_NODE": 72.8696, "ARG_OF_PERICENTER": 346.8052, "MEAN_ANOMALY": 13.0897, "EPHEMERIS_TYPE": 0, "CLASSIFICATION_TYPE": "U", "NORAD_CAT_ID": 35025, "ELEMENT_SET_NO": 999, "REV_AT_EPOCH": 88568, "BSTAR": 0.00064891452, "MEAN_MOTION_DOT": 4.346e-05, "MEAN_MOTION_DDOT": 0}, "tle": {"line1": "1 35025U 93036AGN 25341.66460131  .00004346  00000+0  64891-3 0  9995", "line2": "2 35025  73.9389  72.8696 0084916 346.8052  13.0897 14.72670595885689"}}, "geometry": {"type": "Point", "coordinates": [-113.91092063418341, 18.06173811101613]}}, {"type": "Feature", "properties": {"norad_id": 35026, "name": "COSMOS 2251 DEB", "group": "cosmos-2251-debris", "lat": -29.055547934305206, "lon": -42.100408053380754, "alt_km": 740.8315401826685, "timestamp": "2025-12-08T08:59:01.162331+00:00", "meta": {"OBJECT_NAME": "COSMOS 2251 DEB", "OBJECT_ID": "1993-036AGP", "EPOCH": "2025-12-07T08:39:39.055680", "MEAN_MOTION": 14.53618214, "ECCENTRICITY": 0.00822584, "INCLINATION": 74.0464, "RA_OF_ASC_NODE": 328.9566, "ARG_OF_PERICENTER": 83.9333, "MEAN_ANOMALY": 345.4639, "EPHEMERIS_TYPE": 0, "CLASSIFICATION_TYPE": "U", "NORAD_CAT_ID": 35026, "ELEMENT_SET_NO": 999, "REV_AT_EPOCH": 88065, "BSTAR": 0.00012037639, "MEAN_MOTION_DOT": 4.97e-06, "MEAN_MOTION_DDOT": 0}, "tle": {"line1": "1 35026U 93036AGP 25341.36086870  .00000497  00000+0  12038-3 0  9996", "line2": "2 35026  74.0464 328.9566 0082258  83.9333 345.4639 14.53618214880652"}}, "geometry": {"type": "Point", "coordinates": [-42.100408053380754, -29.055547934305206]}}, {"type": "Feature", "properties": {"norad_id": 35028, "name": "COSMOS 2251 DEB", "group": "cosmos-2251-debris", "lat": 34.96913705595901, "lon": -69.18741742932059, "alt_km": 646.0153256034791, "timestamp": "2025-12-08T08:59:01.162341+00:00", "meta": {"OBJECT_NAME": "COSMOS 2251 DEB", "OBJECT_ID": "1993-036AGR", "EPOCH": "2025-12-06T14:45:20.784960", "MEAN_MOTION": 14.56559763, "ECCENTRICITY": 0.00822588, "INCLINATION": 74.0381, "RA_OF_ASC_NODE": 282.6027, "ARG_OF_PERICENTER": 57.9846, "MEAN_ANOMALY": 116.6366, "EPHEMERIS_TYPE": 0, "CLASSIFICATION_TYPE": "U", "NORAD_CAT_ID": 35028, "ELEMENT_SET_NO": 999, "REV_AT_EPOCH": 88196, "BSTAR": 0.00020909724, "MEAN_MOTION_DOT": 9.44e-06, "MEAN_MOTION_DDOT": 0}, "tle": {"line1": "1 35028U 93036AGR 25340.61482390  .00000944  00000+0  20910-3 0  9997", "line2": "2 35028  74.0381 282.6027 0082258  57.9846 116.6366 14.56559763881966"}}, "geometry": {"type": "Point", "coordinates": [-69.18741742932059, 34.96913705595901]}}, {"type": "Feature", "properties": {"norad_id": 35031, "name": "COSMOS 2251 DEB", "group": "cosmos-2251-debris", "lat": -52.05847599816611, "lon": 108.84342219615556, "alt_km": 778.651816337002, "timestamp": "2025-12-08T08:59:01.162351+00:00", "meta": {"OBJECT_NAME": "COSMOS 2251 DEB", "OBJECT_ID": "1993-036AGU", "EPOCH": "2025-12-06T02:28:30.271296", "MEAN_MOTION": 14.38280865, "ECCENTRICITY": 0.00185684, "INCLINATION": 74.0385, "RA_OF_ASC_NODE": 271.4894, "ARG_OF_PERICENTER": 6.3258, "MEAN_ANOMALY": 353.8127, "EPHEMERIS_TYPE": 0, "CLASSIFICATION_TYPE": "U", "NORAD_CAT_ID": 35031, "ELEMENT_SET_NO": 999, "REV_AT_EPOCH": 65188, "BSTAR": 0.00033805858, "MEAN_MOTION_DOT": 1.004e-05, "MEAN_MOTION_DDOT": 0}, "tle": {"line1": "1 35031U 93036AGU 25340.10312814  .00001004  00000+0  33806-3 0  9994", "line2": "2 35031  74.0385 271.4894 0018568   6.3258 353.8127 14.38280865651880"}}, "geometry": {"type": "Point", "coordinates": [108.84342219615556, -52.05847599816611]}}, {"type": "Feature", "properties": {"norad_id": 35032, "name": "COSMOS 2251 DEB", "group": "cosmos-2251-debris", "lat": 38.684720082475, "lon": -177.72817868025913, "alt_km": 692.4847194369304, "timestamp": "2025-12-08T08:59:01.162362+00:00", "meta": {"OBJECT_NAME": "COSMOS 2251 DEB", "OBJECT_ID": "1993-036AGV", "EPOCH": "2025-12-07T09:23:26.712096", "MEAN_MOTION": 14.58656845, "ECCENTRICITY": 0.0068723, "INCLINATION": 73.8515, "RA_OF_ASC_NODE": 17.579, "ARG_OF_PERICENTER": 229.7715, "MEAN_ANOMALY": 150.3092, "EPHEMERIS_TYPE": 0, "CLASSIFICATION_TYPE": "U", "NORAD_CAT_ID": 35032, "ELEMENT_SET_NO": 999, "REV_AT_EPOCH": 87596, "BSTAR": 0.0014719876, "MEAN_MOTION_DOT": 7.063e-05, "MEAN_MOTION_DDOT": 0}, "tle": {"line1": "1 35032U 93036AGV 25341.39128139  .00007063  00000+0  14720-2 0  9996", "line2": "2 35032  73.8515  17.5790 0068723 229.7715 150.3092 14.58656845875969"}}, "geometry": {"type": "Point", "coordinates": [-177.72817868025913, 38.684720082475]}}, {"type": "Feature", "properties": {"norad_id": 35033, "name": "COSMOS 2251 DEB", "group": "cosmos-2251-debris", "lat": -67.53457455058964, "lon": 140.94392286224002, "alt_km": 719.443771502366, "timestamp": "2025-12-08T08:59:01.162372+00:00", "meta": {"OBJECT_NAME": "COSMOS 2251 DEB", "OBJECT_ID": "1993-036AGW", "EPOCH": "2025-12-07T20:05:05.429760", "MEAN_MOTION": 14.50894479, "ECCENTRICITY": 0.0014382, "INCLINATION": 74.0255, "RA_OF_ASC_NODE": 185.802, "ARG_OF_PERICENTER": 292.4939, "MEAN_ANOMALY": 67.4698, "EPHEMERIS_TYPE": 0, "CLASSIFICATION_TYPE": "U", "NORAD_CAT_ID": 35033, "ELEMENT_SET_NO": 999, "REV_AT_EPOCH": 65856, "BSTAR": 0.0010787428, "MEAN_MOTION_DOT": 4.237e-05, "MEAN_MOTION_DDOT": 0}, "tle": {"line1": "1 35033U 93036AGW 25341.83686840  .00004237  00000+0  10787-2 0  9993", "line2": "2 35033  74.0255 185.8020 0014382 292.4939  67.4698 14.50894479658560"}}, "geometry": {"type": "Point", "coordinates": [140.94392286224002, -67.53457455058964]}}]}